EUTELSAT 7 WEST A       
1 37816U 11051A   16167.28702358 -.00000063  00000-0  00000+0 0  9998
2 37816   0.0577   7.2000 0003111 134.3409 218.4814  1.00271164 17339
QUETZSAT 1              
1 37826U 11054A   16167.07891631 -.00000245  00000-0  00000+0 0  9994
2 37826   0.0374  56.7292 0002801  27.1752 131.2952  1.00271393 17454
INTELSAT 18 (IS-18)     
1 37834U 11056A   16167.46401591  .00000051  00000-0  00000+0 0  9994
2 37834   0.0196 339.4954 0002165 102.2616 169.4444  1.00273553 17211
EUTELSAT 16A            
1 37836U 11057A   16168.01216791  .00000103  00000-0  00000+0 0  9993
2 37836   0.0622   5.5823 0004070  80.8132 198.6761  1.00270967 17159
VIASAT-1                
1 37843U 11059A   16168.35714955 -.00000024  00000-0  00000+0 0  9998
2 37843   0.0226 354.2858 0002670  88.8472 195.3821  1.00269398 17649
ASIASAT 7               
1 37933U 11069A   16167.99197841 -.00000335  00000-0  00000+0 0  9992
2 37933   0.0081 286.8993 0001716 111.0374 329.3697  1.00272621 16842
LUCH 5A                 
1 37951U 11074B   16167.78517228 -.00000043  00000-0  00000+0 0  9996
2 37951   1.7279 213.3390 0003530 236.2076 264.6222  1.00274101 16558
NIGCOMSAT 1R            
1 38014U 11077A   16167.17325843  .00000142  00000-0  00000+0 0  9992
2 38014   0.0270 238.0566 0002683  30.9647  99.7340  1.00269383 16398
FENGYUN 2F              
1 38049U 12002A   16166.87658939 -.00000360  00000-0  00000-0 0  9994
2 38049   0.9799  75.3702 0002924 154.4612 101.3317  1.00263360 16244
SES-4                   
1 38087U 12007A   16167.13791697 -.00000171  00000-0  00000+0 0  9999
2 38087   0.0180 350.1504 0002019 101.7669 199.5746  1.00271625 15840
BEIDOU G5               
1 38091U 12008A   16168.04468922  .00000055  00000-0  00000+0 0  9998
2 38091   1.6332  48.2087 0001289 174.8298 116.4027  1.00272948 15848
INTELSAT 22 (IS-22)     
1 38098U 12011A   16167.06707902 -.00000062  00000-0  00000+0 0  9993
2 38098   0.0194   0.2987 0002172  90.7738 268.9523  1.00273793 15414
APSTAR 7                
1 38107U 12013A   16168.06001487 -.00000102  00000-0  00000+0 0  9997
2 38107   0.0158  26.3122 0002199  51.6524 284.8965  1.00272237 15546
YAHSAT 1B               
1 38245U 12016A   16165.14039841  .00000118  00000-0  00000+0 0  9990
2 38245   0.0193 345.9266 0001630  55.0305 319.0551  1.00270910 15268
JCSAT-13                
1 38331U 12023A   16166.92329997 -.00000360  00000-0  00000+0 0  9995
2 38331   0.0092 325.9903 0002049  97.2321 296.7981  1.00272484 14938
VINASAT-2               
1 38332U 12023B   16167.87216733  .00000000  00000-0  10000-3 0  9999
2 38332   0.0355 356.6526 0001943 103.2890 250.4082  1.00265388 14983
NIMIQ 6                 
1 38342U 12026A   16166.52191879 -.00000178  00000-0  00000+0 0  9999
2 38342   0.0181  47.4814 0002293  24.3112 288.2311  1.00272036 14954
CHINASAT 2A (ZX 2A)     
1 38352U 12028A   16168.05544468 -.00000294  00000-0  00000+0 0  9997
2 38352   0.0550 121.3718 0002334 273.0904 348.5211  1.00271159 15010
INTELSAT 19 (IS-19)     
1 38356U 12030A   16167.80421811 -.00000058  00000-0  00000+0 0  9990
2 38356   0.0261  37.7071 0002332  49.7888 272.5320  1.00271718 14884
ECHOSTAR 17             
1 38551U 12035A   16167.56351299 -.00000077  00000-0  00000+0 0  9998
2 38551   0.0220   0.5691 0002146  86.6443 272.8112  1.00270463 14497
METEOSAT-10 (MSG-3)     
1 38552U 12035B   16166.26827787 -.00000004  00000-0  00000-0 0  9996
2 38552   0.7883  86.5531 0001468 166.1086 107.3192  1.00282222 14249
SES-5                   
1 38652U 12036A   16166.99820912  .00000031  00000-0  00000-0 0  9990
2 38652   0.0423 273.3135 0002547 140.9439 213.8008  1.00272489  7863
TIANLIAN 1-03           
1 38730U 12040A   16168.17996417  .00000125  00000-0  00000+0 0  9991
2 38730   0.0928 266.4331 0005629 197.9079 245.7124  1.00270324 14358
INTELSAT 20 (IS-20)     
1 38740U 12043A   16168.07415988 -.00000025  00000-0  00000+0 0  9993
2 38740   0.0231 355.8255 0000295 304.9036  59.2680  1.00269278 14206
HYLAS 2                 
1 38741U 12043B   16168.17810758  .00000154  00000-0  00000+0 0  9991
2 38741   0.0184  17.8711 0002233  50.6918 291.4627  1.00269482 14224
INTELSAT 21 (IS-21)     
1 38749U 12045A   16163.21722588 -.00000299  00000-0  00000+0 0  9995
2 38749   0.0134   7.4295 0002640  64.5666 208.1749  1.00270825 13957
ASTRA 2F                
1 38778U 12051A   16165.19409500  .00000141  00000-0  00000+0 0  9994
2 38778   0.0776 245.8957 0001080 281.5628 192.5404  1.00267547 13636
GSAT-10                 
1 38779U 12051B   16168.03404341 -.00000166  00000-0  00000+0 0  9997
2 38779   0.0136 359.8153 0002259  71.0213 289.1878  1.00269522 13668
INTELSAT 23 (IS-23)     
1 38867U 12057A   16166.28183757 -.00000290  00000-0  00000+0 0  9999
2 38867   0.0191 282.5806 0002236 148.9822 239.9014  1.00270846 13463
BEIDOU G6               
1 38953U 12059A   16168.11500066 -.00000137  00000-0  10000-3 0  9992
2 38953   0.9127  77.9714 0002858 338.3193 329.9199  1.00270344 13420
LUCH 5B                 
1 38977U 12061A   16168.26079646 -.00000132  00000-0  00000+0 0  9992
2 38977   2.8158  77.1861 0003127  11.5401 253.8130  1.00270575 13547
YAMAL 300K              
1 38978U 12061B   16167.78420564  .00000070  00000-0  00000+0 0  9998
2 38978   0.0514 150.3198 0001186  35.6567 183.7541  1.00270577 13240
STAR ONE C3             
1 38991U 12062A   16168.27663179 -.00000249  00000-0  00000+0 0  9999
2 38991   0.0201   7.1853 0002334  70.5382 211.8421  1.00270255 13225
EUTELSAT 21B            
1 38992U 12062B   16167.20700011  .00000127  00000-0  00000-0 0  9994
2 38992   0.0624   3.8333 0001845  86.4425 269.7454  1.00270659 13216
ECHOSTAR 16             
1 39008U 12065A   16167.43720221 -.00000284  00000-0  00000+0 0  9990
2 39008   0.0162 345.1522 0002826  98.2409 276.6397  1.00272043 13174
CHINASAT 12 (ZX 12)     
1 39017U 12067A   16168.05751876 -.00000208  00000-0  00000+0 0  9997
2 39017   0.0195  52.2402 0003244  30.4324 290.2945  1.00272561 13088
EUTELSAT 70B            
1 39020U 12069A   16167.07156872 -.00000046  00000-0  00000+0 0  9999
2 39020   0.0588  11.4400 0002405 114.7016 233.8805  1.00272002 12970
YAMAL 402               
1 39022U 12070A   16168.04453516  .00000085  00000-0  10000-3 0  9993
2 39022   0.0328 282.3917 0003235 167.1154 246.1747  1.00275192 12967
SKYNET 5D               
1 39034U 12075A   16168.18059817  .00000099  00000-0  00000+0 0  9992
2 39034   0.0677 347.8250 0003609  99.7089 295.0936  1.00272130 12890
MEXSAT 3                
1 39035U 12075B   16167.58485388 -.00000027  00000-0  00000+0 0  9994
2 39035   0.0451 167.4688 0002127 274.8307 277.7254  1.00272626 12840
TDRS 11                 
1 39070U 13004A   16167.65550982  .00000088  00000-0  00000+0 0  9993
2 39070   5.8463 329.1761 0008184 281.9195  78.0069  1.00271313 12351
AMAZONAS 3              
1 39078U 13006A   16167.43573103 -.00000285  00000-0  00000+0 0  9999
2 39078   0.0417 195.0253 0002003 283.0758 241.9196  1.00273159 12333
AZERSPACE 1             
1 39079U 13006B   16167.13910227  .00000130  00000-0  00000+0 0  9997
2 39079   0.0203  16.1607 0001435  89.5130 254.3421  1.00268870 12292
EUTELSAT 117 WEST A     
1 39122U 13012A   16166.59298708 -.00000017  00000-0  00000-0 0  9991
2 39122   0.0189   0.7137 0002150  75.1869 284.1234  1.00270865 11813
ANIK G1                 
1 39127U 13014A   16166.56674839 -.00000078  00000-0  00000+0 0  9994
2 39127   0.0211 355.3698 0000916  50.5751 314.0626  1.00270056 11618
CHINASAT 11 (ZX 11)     
1 39157U 13020A   16167.42931302 -.00000293  00000-0  00000+0 0  9990
2 39157   0.0157  62.4887 0001327 300.8204 153.3728  1.00270625 11515
EUTELSAT 7B             
1 39163U 13022A   16166.25018549  .00000043  00000-0  00000-0 0  9991
2 39163   0.0456  31.6837 0004245 359.0217 329.3177  1.00272181 11353
SES-6                   
1 39172U 13026A   16167.19632025 -.00000264  00000-0  00000+0 0  9995
2 39172   0.0379  50.6721 0002140  33.9786 209.4073  1.00270777 11094
IRNSS-1A                
1 39199U 13034A   16164.45890113  .00000116  00000-0  00000-0 0  9999
2 39199  28.2517 121.5211 0019465 190.0426 169.8288  1.00274121 10706
ALPHASAT                
1 39215U 13038A   16167.28407781  .00000136  00000-0  00000+0 0  9992
2 39215   1.3324  31.7681 0001380  57.5649 301.7639  1.00273763 10637
INSAT-3D                
1 39216U 13038B   16168.03666295 -.00000157  00000-0  00000+0 0  9998
2 39216   0.0980  95.5444 0000961 312.9476 311.5176  1.00272528 10674
EUTELSAT 25B            
1 39233U 13044A   16168.19344101  .00000143  00000-0  00000+0 0  9994
2 39233   0.0442 354.2704 0001766  85.6366 280.1149  1.00270231 10272
GSAT-7                  
1 39234U 13044B   16166.06422815 -.00000083  00000-0  00000+0 0  9992
2 39234   0.0167  75.4805 0008342 213.6390  70.7876  1.00272219 10254
AMOS-4                  
1 39237U 13045A   16167.08671525  .00000005  00000-0  00000+0 0  9996
2 39237   0.0325 290.6669 0001287 156.9412 272.4065  1.00270313 10251
ASTRA 2E                
1 39285U 13056A   16166.19056574  .00000145  00000-0  00000-0 0  9999
2 39285   0.0669 323.6934 0002530 128.0672 268.2668  1.00273737  9834
SIRIUS FM-6             
1 39360U 13058A   16167.72730650  .00000000  00000-0  10000-3 0  9993
2 39360   0.0369  84.9530 0002496 238.5298  86.6725  1.00270902  9710
RADUGA-1M 3             
1 39375U 13062A   16168.11468512 -.00000039  00000-0  00000+0 0  9991
2 39375   0.0106  63.4837 0002571  33.5102 279.0993  1.00272535  9504
SES-8                   
1 39460U 13071A   16167.55549116 -.00000272  00000-0  00000+0 0  9992
2 39460   0.0308 280.5580 0003012 167.4138 111.2594  1.00272949  9230
INMARSAT 5-F1           
1 39476U 13073A   16168.02097866  .00000026  00000-0  00000+0 0  9990
2 39476   0.0188   2.4480 0000548  58.5841 273.8619  1.00275485  9292
